KUIPER-00157            
1 65970U 25228Z   25310.85303035  .00026784  00000+0  79365-3 0  9993
2 65970  51.8796 193.5304 0005640 235.1576 124.8879 15.34652106  4909
STRIX-5                 
1 65971U 25229A   25310.72665767  .00007645  00000+0  58184-3 0  9995
2 65971  41.9278  78.7726 0038711  35.4556 324.8832 15.01770643  3496
ELECTRON R/B            
1 65972U 25229B   25310.79316528  .00007824  00000+0  59512-3 0  9996
2 65972  41.9279  78.4056 0038674  35.8356 324.5053 15.01772223  3488
ELECTRON KICK STAGE R/B 
1 65973U 25229C   25310.78007803  .00010699  00000+0  78832-3 0  9999
2 65973  41.9839  78.4336 0039851  35.8685 324.4806 15.02678766  3477
SDA_1664                
1 65974U 25230A   25310.90003629  .00000234  00000+0  19780-3 0  9999
2 65974  81.2996  57.8480 0003342  58.0756 302.0726 13.84697000  3048
SDA_1665                
1 65975U 25230B   25310.88851876  .00000267  00000+0  22415-3 0  9997
2 65975  81.3033  57.8446 0005028  99.7321 260.4404 13.85427067  3042
SDA_1666                
1 65976U 25230C   25310.90116310  .00000230  00000+0  19431-3 0  9992
2 65976  81.3005  57.8517 0002987  55.4354 304.7084 13.84625693  3047
SDA_1667                
1 65977U 25230D   25310.89719942  .00000246  00000+0  20740-3 0  9993
2 65977  81.3000  57.8453 0003892  68.4385 291.7186 13.84876627  3049
SDA_1668                
1 65978U 25230E   25310.88786477  .00000269  00000+0  22591-3 0  9991
2 65978  81.3017  57.8353 0004974 102.5375 257.6339 13.85468501  3048
SDA_1669                
1 65979U 25230F   25310.89153808  .00000253  00000+0  21261-3 0  9995
2 65979  81.3019  57.8408 0005064  89.9511 270.2227 13.85235365  3040
SDA_1670                
1 65980U 25230G   25310.89821943  .00000240  00000+0  20288-3 0  9993
2 65980  81.2996  57.8455 0003586  65.1657 294.9873 13.84812202  3041
SDA_1671                
1 65981U 25230H   25310.88953269  .00000245  00000+0  20510-3 0  9993
2 65981  81.3023  57.8388 0005024  96.8438 263.3291 13.85361803  3047
