CCSDS_OMM_VERS = 2.0
CREATION_DATE  = 
ORIGINATOR     = 

OBJECT_NAME    = KUIPER-00157
OBJECT_ID      = 2025-228Z
CENTER_NAME    = EARTH
REF_FRAME      = TEME
TIME_SYSTEM    = UTC
MEAN_ELEMENT_THEORY = SGP/SGP4

EPOCH          = 2025-11-06T20:28:21.822240
MEAN_MOTION    = 15.34652106
ECCENTRICITY   = .00056402
INCLINATION    = 51.8796
RA_OF_ASC_NODE = 193.5304
ARG_OF_PERICENTER = 235.1576
MEAN_ANOMALY   = 124.8879

EPHEMERIS_TYPE = 0
CLASSIFICATION_TYPE = U
NORAD_CAT_ID   = 65970
ELEMENT_SET_NO = 999
REV_AT_EPOCH   = 490
BSTAR          = .79364781E-3
MEAN_MOTION_DOT = .26784E-3
MEAN_MOTION_DDOT = 0

CCSDS_OMM_VERS = 2.0
CREATION_DATE  = 
ORIGINATOR     = 

OBJECT_NAME    = STRIX-5
OBJECT_ID      = 2025-229A
CENTER_NAME    = EARTH
REF_FRAME      = TEME
TIME_SYSTEM    = UTC
MEAN_ELEMENT_THEORY = SGP/SGP4

EPOCH          = 2025-11-06T17:26:23.222688
MEAN_MOTION    = 15.01770643
ECCENTRICITY   = .00387119
INCLINATION    = 41.9278
RA_OF_ASC_NODE = 78.7726
ARG_OF_PERICENTER = 35.4556
MEAN_ANOMALY   = 324.8832

EPHEMERIS_TYPE = 0
CLASSIFICATION_TYPE = U
NORAD_CAT_ID   = 65971
ELEMENT_SET_NO = 999
REV_AT_EPOCH   = 349
BSTAR          = .58184146E-3
MEAN_MOTION_DOT = .7645E-4
MEAN_MOTION_DDOT = 0

CCSDS_OMM_VERS = 2.0
CREATION_DATE  = 
ORIGINATOR     = 

OBJECT_NAME    = ELECTRON R/B
OBJECT_ID      = 2025-229B
CENTER_NAME    = EARTH
REF_FRAME      = TEME
TIME_SYSTEM    = UTC
MEAN_ELEMENT_THEORY = SGP/SGP4

EPOCH          = 2025-11-06T19:02:09.480192
MEAN_MOTION    = 15.01772223
ECCENTRICITY   = .0038674
INCLINATION    = 41.9279
RA_OF_ASC_NODE = 78.4056
ARG_OF_PERICENTER = 35.8356
MEAN_ANOMALY   = 324.5053

EPHEMERIS_TYPE = 0
CLASSIFICATION_TYPE = U
NORAD_CAT_ID   = 65972
ELEMENT_SET_NO = 999
REV_AT_EPOCH   = 348
BSTAR          = .59511592E-3
MEAN_MOTION_DOT = .7824E-4
MEAN_MOTION_DDOT = 0

CCSDS_OMM_VERS = 2.0
CREATION_DATE  = 
ORIGINATOR     = 

OBJECT_NAME    = ELECTRON KICK STAGE R/B
OBJECT_ID      = 2025-229C
CENTER_NAME    = EARTH
REF_FRAME      = TEME
TIME_SYSTEM    = UTC
MEAN_ELEMENT_THEORY = SGP/SGP4

EPOCH          = 2025-11-06T18:43:18.741792
MEAN_MOTION    = 15.02678766
ECCENTRICITY   = .00398513
INCLINATION    = 41.9839
RA_OF_ASC_NODE = 78.4336
ARG_OF_PERICENTER = 35.8685
MEAN_ANOMALY   = 324.4806

EPHEMERIS_TYPE = 0
CLASSIFICATION_TYPE = U
NORAD_CAT_ID   = 65973
ELEMENT_SET_NO = 999
REV_AT_EPOCH   = 347
BSTAR          = .78832322E-3
MEAN_MOTION_DOT = .10699E-3
MEAN_MOTION_DDOT = 0

CCSDS_OMM_VERS = 2.0
CREATION_DATE  = 
ORIGINATOR     = 

OBJECT_NAME    = SDA_1664
OBJECT_ID      = 2025-230A
CENTER_NAME    = EARTH
REF_FRAME      = TEME
TIME_SYSTEM    = UTC
MEAN_ELEMENT_THEORY = SGP/SGP4

EPOCH          = 2025-11-06T21:36:03.135456
MEAN_MOTION    = 13.84697000
ECCENTRICITY   = .00033428
INCLINATION    = 81.2996
RA_OF_ASC_NODE = 57.8480
ARG_OF_PERICENTER = 58.0756
MEAN_ANOMALY   = 302.0726

EPHEMERIS_TYPE = 0
CLASSIFICATION_TYPE = U
NORAD_CAT_ID   = 65974
ELEMENT_SET_NO = 999
REV_AT_EPOCH   = 304
BSTAR          = .19780052E-3
MEAN_MOTION_DOT = .234E-5
MEAN_MOTION_DDOT = 0

CCSDS_OMM_VERS = 2.0
CREATION_DATE  = 
ORIGINATOR     = 

OBJECT_NAME    = SDA_1665
OBJECT_ID      = 2025-230B
CENTER_NAME    = EARTH
REF_FRAME      = TEME
TIME_SYSTEM    = UTC
MEAN_ELEMENT_THEORY = SGP/SGP4

EPOCH          = 2025-11-06T21:19:28.020864
MEAN_MOTION    = 13.85427067
ECCENTRICITY   = .00050283
INCLINATION    = 81.3033
RA_OF_ASC_NODE = 57.8446
ARG_OF_PERICENTER = 99.7321
MEAN_ANOMALY   = 260.4404

EPHEMERIS_TYPE = 0
CLASSIFICATION_TYPE = U
NORAD_CAT_ID   = 65975
ELEMENT_SET_NO = 999
REV_AT_EPOCH   = 304
BSTAR          = .22415271E-3
MEAN_MOTION_DOT = .267E-5
MEAN_MOTION_DDOT = 0

CCSDS_OMM_VERS = 2.0
CREATION_DATE  = 
ORIGINATOR     = 

OBJECT_NAME    = SDA_1666
OBJECT_ID      = 2025-230C
CENTER_NAME    = EARTH
REF_FRAME      = TEME
TIME_SYSTEM    = UTC
MEAN_ELEMENT_THEORY = SGP/SGP4

EPOCH          = 2025-11-06T21:37:40.491840
MEAN_MOTION    = 13.84625693
ECCENTRICITY   = .00029871
INCLINATION    = 81.3005
RA_OF_ASC_NODE = 57.8517
ARG_OF_PERICENTER = 55.4354
MEAN_ANOMALY   = 304.7084

EPHEMERIS_TYPE = 0
CLASSIFICATION_TYPE = U
NORAD_CAT_ID   = 65976
ELEMENT_SET_NO = 999
REV_AT_EPOCH   = 304
BSTAR          = .19430726E-3
MEAN_MOTION_DOT = .23E-5
MEAN_MOTION_DDOT = 0

CCSDS_OMM_VERS = 2.0
CREATION_DATE  = 
ORIGINATOR     = 

OBJECT_NAME    = SDA_1667
OBJECT_ID      = 2025-230D
CENTER_NAME    = EARTH
REF_FRAME      = TEME
TIME_SYSTEM    = UTC
MEAN_ELEMENT_THEORY = SGP/SGP4

EPOCH          = 2025-11-06T21:31:58.029888
MEAN_MOTION    = 13.84876627
ECCENTRICITY   = .00038921
INCLINATION    = 81.3000
RA_OF_ASC_NODE = 57.8453
ARG_OF_PERICENTER = 68.4385
MEAN_ANOMALY   = 291.7186

EPHEMERIS_TYPE = 0
CLASSIFICATION_TYPE = U
NORAD_CAT_ID   = 65977
ELEMENT_SET_NO = 999
REV_AT_EPOCH   = 304
BSTAR          = .20740212E-3
MEAN_MOTION_DOT = .246E-5
MEAN_MOTION_DDOT = 0

CCSDS_OMM_VERS = 2.0
CREATION_DATE  = 
ORIGINATOR     = 

OBJECT_NAME    = SDA_1668
OBJECT_ID      = 2025-230E
CENTER_NAME    = EARTH
REF_FRAME      = TEME
TIME_SYSTEM    = UTC
MEAN_ELEMENT_THEORY = SGP/SGP4

EPOCH          = 2025-11-06T21:18:31.516128
MEAN_MOTION    = 13.85468501
ECCENTRICITY   = .00049743
INCLINATION    = 81.3017
RA_OF_ASC_NODE = 57.8353
ARG_OF_PERICENTER = 102.5375
MEAN_ANOMALY   = 257.6339

EPHEMERIS_TYPE = 0
CLASSIFICATION_TYPE = U
NORAD_CAT_ID   = 65978
ELEMENT_SET_NO = 999
REV_AT_EPOCH   = 304
BSTAR          = .22591119E-3
MEAN_MOTION_DOT = .269E-5
MEAN_MOTION_DDOT = 0

CCSDS_OMM_VERS = 2.0
CREATION_DATE  = 
ORIGINATOR     = 

OBJECT_NAME    = SDA_1669
OBJECT_ID      = 2025-230F
CENTER_NAME    = EARTH
REF_FRAME      = TEME
TIME_SYSTEM    = UTC
MEAN_ELEMENT_THEORY = SGP/SGP4

EPOCH          = 2025-11-06T21:23:48.890112
MEAN_MOTION    = 13.85235365
ECCENTRICITY   = .00050646
INCLINATION    = 81.3019
RA_OF_ASC_NODE = 57.8408
ARG_OF_PERICENTER = 89.9511
MEAN_ANOMALY   = 270.2227

EPHEMERIS_TYPE = 0
CLASSIFICATION_TYPE = U
NORAD_CAT_ID   = 65979
ELEMENT_SET_NO = 999
REV_AT_EPOCH   = 304
BSTAR          = .21261022E-3
MEAN_MOTION_DOT = .253E-5
MEAN_MOTION_DDOT = 0

CCSDS_OMM_VERS = 2.0
CREATION_DATE  = 
ORIGINATOR     = 

OBJECT_NAME    = SDA_1670
OBJECT_ID      = 2025-230G
CENTER_NAME    = EARTH
REF_FRAME      = TEME
TIME_SYSTEM    = UTC
MEAN_ELEMENT_THEORY = SGP/SGP4

EPOCH          = 2025-11-06T21:33:26.158752
MEAN_MOTION    = 13.84812202
ECCENTRICITY   = .00035862
INCLINATION    = 81.2996
RA_OF_ASC_NODE = 57.8455
ARG_OF_PERICENTER = 65.1657
MEAN_ANOMALY   = 294.9873

EPHEMERIS_TYPE = 0
CLASSIFICATION_TYPE = U
NORAD_CAT_ID   = 65980
ELEMENT_SET_NO = 999
REV_AT_EPOCH   = 304
BSTAR          = .20287753E-3
MEAN_MOTION_DOT = .24E-5
MEAN_MOTION_DDOT = 0

CCSDS_OMM_VERS = 2.0
CREATION_DATE  = 
ORIGINATOR     = 

OBJECT_NAME    = SDA_1671
OBJECT_ID      = 2025-230H
CENTER_NAME    = EARTH
REF_FRAME      = TEME
TIME_SYSTEM    = UTC
MEAN_ELEMENT_THEORY = SGP/SGP4

EPOCH          = 2025-11-06T21:20:55.624416
MEAN_MOTION    = 13.85361803
ECCENTRICITY   = .00050241
INCLINATION    = 81.3023
RA_OF_ASC_NODE = 57.8388
ARG_OF_PERICENTER = 96.8438
MEAN_ANOMALY   = 263.3291

EPHEMERIS_TYPE = 0
CLASSIFICATION_TYPE = U
NORAD_CAT_ID   = 65981
ELEMENT_SET_NO = 999
REV_AT_EPOCH   = 304
BSTAR          = .20509591E-3
MEAN_MOTION_DOT = .245E-5
MEAN_MOTION_DDOT = 0

